TRANSPORTER-12 OBJECT AZ
1 62656U 25009AZ  26068.71026235  .00016057  00000+0  54903-3 0  9991
2 62656  97.3981 151.9913 0000987  45.3581 314.7740 15.30349724 63792
STARLINK-34858          
1 65023U 25161J   26068.85624241  .00032063  00000+0  10894-2 0  9992
2 65023  53.1580 293.5480 0001261 126.1688 233.9430 15.30216515 35341
