[{"OBJECT_NAME":"TRANSPORTER-12 OBJECT AZ","OBJECT_ID":"2025-009AZ","EPOCH":"2026-03-09T17:02:46.667040","MEAN_MOTION":15.30349724,"ECCENTRICITY":9.87e-5,"INCLINATION":97.3981,"RA_OF_ASC_NODE":151.9913,"ARG_OF_PERICENTER":45.3581,"MEAN_ANOMALY":314.774,"EPHEMERIS_TYPE":0,"CLASSIFICATION_TYPE":"U","NORAD_CAT_ID":62656,"ELEMENT_SET_NO":999,"REV_AT_EPOCH":6379,"BSTAR":0.00054902545,"MEAN_MOTION_DOT":0.00016057,"MEAN_MOTION_DDOT":0},{"OBJECT_NAME":"STARLINK-34858","OBJECT_ID":"2025-161J","EPOCH":"2026-03-09T20:32:59.344224","MEAN_MOTION":15.30216515,"ECCENTRICITY":0.00012609,"INCLINATION":53.158,"RA_OF_ASC_NODE":293.548,"ARG_OF_PERICENTER":126.1688,"MEAN_ANOMALY":233.943,"EPHEMERIS_TYPE":0,"CLASSIFICATION_TYPE":"U","NORAD_CAT_ID":65023,"ELEMENT_SET_NO":999,"REV_AT_EPOCH":3534,"BSTAR":0.0010894334,"MEAN_MOTION_DOT":0.00032063,"MEAN_MOTION_DDOT":0}]
